STARLINK-31737          
1 59537U 24074D   24133.58334491  .00073786  00000+0  12530-2 0  9999
2 59537  42.9995 180.4649 0000855 263.3887 189.8087 15.50550463  4915
STARLINK-31725          
1 59538U 24074E   24133.25001157 -.00713236  00000+0 -28393-2 0  9991
2 59538  42.9932 178.6826 0001616 278.1289 158.8384 15.87323622  4897
STARLINK-31539          
1 59539U 24074F   24133.58334491  .00049122  00000+0  83791-3 0  9996
2 59539  42.9995 180.4449 0001591 252.3939 208.4459 15.50578128  4817
STARLINK-31397          
1 59540U 24074G   24133.58334491  .00091335  00000+0  15469-2 0  9997
2 59540  42.9995 180.4498 0001448 253.4739 205.4871 15.50536646  4919
STARLINK-31481          
1 59541U 24074H   24133.58334491  .00048582  00000+0  82871-3 0  9996
2 59541  42.9995 180.4405 0002038 275.6973 187.0544 15.50581124  4913
STARLINK-31540          
1 59542U 24074J   24133.58334491  .00048226  00000+0  82277-3 0  9992
2 59542  42.9995 180.4355 0001302 259.5686 205.1008 15.50580193  4915
STARLINK-31574          
1 59543U 24074K   24133.58334491  .00047840  00000+0  81627-3 0  9992
2 59543  42.9994 180.4306 0001153 247.2906 219.2947 15.50580555  4914
STARLINK-31556          
1 59544U 24074L   24133.58334491  .00045400  00000+0  77507-3 0  9995
2 59544  42.9994 180.4208 0001505 258.1406 212.2735 15.50583698  4912
STARLINK-31582          
1 59545U 24074M   24133.58334491  .00048123  00000+0  82105-3 0  9991
2 59545  42.9994 180.4256 0001879 273.9234 194.5800 15.50578865  4919
STARLINK-31519          
1 59546U 24074N   24133.58334491  .00046987  00000+0  80190-3 0  9990
2 59546  42.9994 180.4157 0001569 272.3342 200.0005 15.50580111  4905
STARLINK-31736          
1 59547U 24074P   24133.58334491  .00052334  00000+0  89223-3 0  9990
2 59547  42.9995 180.4107 0001643 284.5444 189.7188 15.50569284  4816
STARLINK-31675          
1 59548U 24074Q   24133.58334491  .00048049  00000+0  81988-3 0  9999
2 59548  42.9994 180.4055 0001861 260.8191 215.3518 15.50576741  4916
STARLINK-31722          
1 59549U 24074R   24133.58334491  .00053911  00000+0  91881-3 0  9997
2 59549  42.9994 180.4002 0001622 289.4856 188.6118 15.50567433  4869
STARLINK-31741          
1 59550U 24074S   24133.58334491  .00048183  00000+0  82218-3 0  9998
2 59550  42.9994 180.3958 0002105 272.7124 207.2942 15.50574556  4799
STARLINK-31699          
1 59551U 24074T   24133.58334491  .00108247  00000+0  18371-2 0  9995
2 59551  42.9994 180.3884 0001747 281.5230 201.1786 15.50401201  4914
STARLINK-31750          
1 59552U 24074U   24133.58334491  .00046954  00000+0  80147-3 0  9993
2 59552  42.9994 180.3808 0001494 269.6706 216.0829 15.50575655  4979
STARLINK-31723          
1 59553U 24074V   24133.58334491  .00054132  00000+0  92266-3 0  9996
2 59553  42.9994 180.3860 0001493 282.6700 201.1805 15.50563924  4915
STARLINK-31724          
1 59554U 24074W   24133.58334491  .00050513  00000+0  86155-3 0  9996
2 59554  42.9994 180.3763 0001718 285.6743 202.0011 15.50570400  4813
STARLINK-31730          
1 59555U 24074X   24133.58334491  .00037736  00000+0  64569-3 0  9994
2 59555  42.9993 180.3666 0001230 253.1573 238.3272 15.50590965  4915
STARLINK-31718          
1 59556U 24074Y   24133.58334491  .00072751  00000+0  12364-2 0  9996
2 59556  42.9992 180.3714 0001118 220.6005 269.0316 15.50533823  4913
2024-075A               
1 59557U 24075A   24133.17057167 -.00000038  00000+0  00000+0 0  9996
2 59557  35.0044  47.1292 0006173  93.6895  55.0436 15.22949611  3232
2024-075B               
1 59558U 24075B   24132.91114309 -.00000051  00000+0  00000+0 0  9995
2 59558  35.0827  46.4971 0076630 193.1848 217.0659 15.36392265  3225
1998-067WJ              
1 59559U 98067WJ  24133.20776082  .00098864  00000+0  14392-2 0  9993
2 59559  51.6363 133.3572 0004908  88.2921 271.8632 15.54923896  3738
1998-067WK              
1 59560U 98067WK  24133.38457095  .00159538  00000+0  21145-2 0  9994
2 59560  51.6356 132.2879 0007084 100.6306 259.5484 15.57191462  3685
1998-067WL              
1 59561U 98067WL  24133.15990019  .00053097  00000+0  83676-3 0  9999
2 59561  51.6361 133.7885 0002783 111.1633 248.9655 15.53022937  3695
BURSTCUBE               
1 59562U 98067WM  24133.20963596  .00081837  00000+0  12034-2 0  9998
2 59562  51.6363 133.3697 0002734 133.4423 226.6795 15.54742723  3719
1998-067WN              
1 59563U 98067WN  24133.21437225  .00057499  00000+0  86945-3 0  9995
2 59563  51.6362 133.4019 0003123 140.5133 219.6085 15.54128386  3704
STARLINK-31747          
1 59564U 24076A   24133.56647251  .00181829  00000+0  12224-2 0  9998
2 59564  42.9983 209.4187 0002427 327.3075  32.7643 15.73857762  4177
STARLINK-31388          
1 59565U 24076B   24133.56607751  .00126871  00000+0  86224-3 0  9998
2 59565  42.9989 209.4158 0001966 318.6707  41.4013 15.73784890  4173
STARLINK-31332          
1 59566U 24076C   24133.56550861  .00039687  00000+0  27574-3 0  9999
2 59566  42.9977 209.4103 0001616 288.9622  71.1071 15.73701341  4183
STARLINK-31689          
1 59567U 24076D   24133.56588268  .00109667  00000+0  74628-3 0  9990
2 59567  42.9984 209.4139 0002092 355.4473   4.6376 15.73815900  4179
STARLINK-31471          
1 59568U 24076E   24133.56504154  .00196918  00000+0  13195-2 0  9999
2 59568  42.9983 209.4075 0002593 306.3062  53.7567 15.73887048  4015
STARLINK-31470          
1 59569U 24076F   24133.24729554  .00078472  00000+0  53918-3 0  9990
2 59569  42.9982 211.3247 0001732 329.7244  30.3524 15.73717896  3963
STARLINK-31587          
1 59570U 24076G   24133.58334491  .00031573  00000+0  22011-3 0  9992
2 59570  42.9984 209.2870 0001655 306.2185 161.8465 15.73714760  4178
STARLINK-31606          
1 59571U 24076H   24133.25001157  .00009638  00000+0  69561-4 0  9996
2 59571  42.9985 211.2983 0001893 289.8534  89.2792 15.73729639  3958
STARLINK-31666          
1 59572U 24076J   24133.24601241 -.00099072  00000+0 -68311-3 0  9990
2 59572  42.9976 211.3147 0001879 288.5179  71.5485 15.73877053  4124
STARLINK-31683          
1 59573U 24076K   24133.58334491  .00020318  00000+0  14276-3 0  9994
2 59573  42.9987 209.2745 0001725 299.8861 173.7145 15.73750680  4179
STARLINK-31751          
1 59574U 24076L   24133.56253068  .00048928  00000+0  33844-3 0  9992
2 59574  42.9977 209.3852 0001240 306.2952  53.7802 15.73727982  4171
STARLINK-31510          
1 59575U 24076M   24133.56288828  .00107070  00000+0  73071-3 0  9995
2 59575  42.9982 209.3889 0001453 334.4410  25.6387 15.73759565  4174
STARLINK-31663          
1 59576U 24076N   24133.56194950  .00118611  00000+0  80689-3 0  9994
2 59576  42.9985 209.3820 0001599 346.8171  13.2655 15.73791666  4174
STARLINK-31692          
1 59577U 24076P   24133.56221538  .00098323  00000+0  67121-3 0  9991
2 59577  42.9980 209.3838 0001762 291.5249  68.5431 15.73785555  4178
STARLINK-31685          
1 59578U 24076Q   24133.56159905  .00054753  00000+0  37730-3 0  9992
2 59578  42.9984 209.3775 0001743 344.6404  15.4412 15.73776100  4182
STARLINK-31686          
1 59579U 24076R   24133.56082220  .00014357  00000+0  10214-3 0  9992
2 59579  42.9973 209.3692 0001424 271.8846  88.1860 15.73693613  4187
STARLINK-31668          
1 59580U 24076S   24133.43424948  .00020825  00000+0  14646-3 0  9997
2 59580  42.9969 210.1426 0002359 301.2894  58.7743 15.73713460  4151
STARLINK-31690          
1 59581U 24076T   24133.56047116  .00026574  00000+0  18586-3 0  9994
2 59581  42.9972 209.3683 0001688 276.2458  83.8218 15.73716423  4183
STARLINK-31701          
1 59582U 24076U   24133.24248836  .00040111  00000+0  27864-3 0  9994
2 59582  42.9984 211.2841 0001133 304.1720  55.9041 15.73701497  3967
STARLINK-31697          
1 59583U 24076V   24133.56014705  .00016076  00000+0  11365-3 0  9998
2 59583  42.9986 209.3658 0002764 262.5299  97.5255 15.73755774  4016
STARLINK-31662          
1 59584U 24076W   24133.55941377 -.00039110  00000+0 -26813-3 0  9992
2 59584  42.9973 209.3593 0000433 248.6786 111.4036 15.73680435  4179
STARLINK-31702          
1 59585U 24076X   24133.43217601  .00063410  00000+0  43783-3 0  9999
2 59585  42.9991 210.1265 0002504 255.1472 104.9119 15.73676643  4155
STARLINK-31704          
1 59586U 24076Y   24133.55860447 -.00530086  00000+0 -38957-2 0  9991
2 59586  42.9975 209.3532 0002641 306.3876  53.6749 15.73657683  4189
NEONSAT-1               
1 59587U 24077A   24133.51365617  .00015633  00000+0  80525-3 0  9991
2 59587  97.4122 213.8578 0015464 208.8972 151.1406 15.16375462  2810
ACS3                    
1 59588U 24077B   24132.74196245  .00000213  00000+0  28574-3 0  9999
2 59588  97.4069 209.3852 0020122 190.3941 169.6797 13.67676817  2420
ELECTRON KICK STAGE R/B 
1 59590U 24077D   24133.50438290  .00014418  00000+0  15256-2 0  9990
2 59590  97.3946 211.9700 0387011 147.0575 215.5393 14.47028155  2677
SHENZHOU-18 (SZ-18)     
1 59591U 24078A   24132.87997413  .00085021  00000+0  87302-3 0  9998
2 59591  41.4685 304.9057 0003628 323.1141  36.9449 15.63882655  2467
1998-067WP              
1 59596U 98067WP  24133.45901553  .00090122  00000+0  12754-2 0  9993
2 59596  51.6355 132.0354 0005213  88.8822 271.2766 15.55733710  3782
1998-067WQ              
1 59597U 98067WQ  24133.45868422  .00090876  00000+0  12836-2 0  9998
2 59597  51.6366 132.0345 0005267  89.0272 271.1322 15.55781695  3755
2024-079A               
1 59598U 24079A   24131.01035736  .00000033  00000+0  00000+0 0  9998
2 59598  54.6701 122.5997 0021924 254.4177 147.3496  1.72327417   204
FALCON 9 R/B            
1 59599U 24079B   24130.92921473  .00000033  00000+0  00000+0 0  9990
2 59599  54.6640 122.5502 0001397 280.1089  80.7823  1.73014309   241
